{
  "norad_id": 53060,
  "name": "STARLINK-4305",
  "history": [
    {
      "epoch": "2026-03-28T17:59:45.032064Z",
      "apogee_km": 563.6386818814699,
      "perigee_km": 562.3878866002506,
      "latitude_deg": 4.8725172108540986e-05,
      "longitude_deg": 172.7741610866779,
      "height_km": 566.3283895256651,
      "semi_major_axis_km": 6941.15028424086,
      "eccentricity": 9.01e-05,
      "inclination_deg": 97.6006,
      "raan_deg": 268.8776,
      "arg_perigee_deg": 114.2706,
      "mean_anomaly_deg": 245.8613,
      "mean_motion_rev_day": 15.01258885
    },
    {
      "epoch": "2026-03-29T01:59:38.878368Z",
      "apogee_km": 563.6414881628234,
      "perigee_km": 562.3795875404421,
      "latitude_deg": -1.4623876959470637e-05,
      "longitude_deg": 52.79743171382666,
      "height_km": 566.3435627288245,
      "semi_major_axis_km": 6941.1475378516325,
      "eccentricity": 9.09e-05,
      "inclination_deg": 97.6007,
      "raan_deg": 269.2037,
      "arg_perigee_deg": 115.8365,
      "mean_anomaly_deg": 244.2953,
      "mean_motion_rev_day": 15.01259776
    },
    {
      "epoch": "2026-03-30T01:59:20.221152Z",
      "apogee_km": 563.6210023394597,
      "perigee_km": 562.3882555861555,
      "latitude_deg": -1.9851345802618392e-05,
      "longitude_deg": 52.86823923272205,
      "height_km": 566.3637978442553,
      "semi_major_axis_km": 6941.141628962807,
      "eccentricity": 8.88e-05,
      "inclination_deg": 97.6005,
      "raan_deg": 270.1822,
      "arg_perigee_deg": 119.2349,
      "mean_anomaly_deg": 240.8964,
      "mean_motion_rev_day": 15.01261693
    }
  ]
}